FENGYUN 1C DEB          
1 29935U 99025JH  17345.95514549  .00000036  00000-0  37199-4 0  9997
2 29935  98.3391 160.5574 0152106 325.0120 189.5088 14.12853880562595
